GLOBALSTAR M066         
1 32265U 07048C   26087.80315860 -.00000074  00000+0  17344-3 0  9994
2 32265  51.9587 288.6746 0004106 226.0161 146.9955 12.30387643850330
